[
  {
    "OBJECT_NAME": "MOZHAYETS 4 (RS-22)",
    "OBJECT_ID": "2003-042A",
    "EPOCH": "2025-06-28T20:20:28.626720",
    "MEAN_MOTION": 14.72390387,
    "ECCENTRICITY": 0.0010424,
    "INCLINATION": 98.3294,
    "RA_OF_ASC_NODE": 349.7658,
    "ARG_OF_PERICENTER": 313.5306,
    "MEAN_ANOMALY": 176.5051,
    "EPHEMERIS_TYPE": 0,
    "CLASSIFICATION_TYPE": "U",
    "NORAD_CAT_ID": 27939,
    "ELEMENT_SET_NO": 999,
    "REV_AT_EPOCH": 16366,
    "BSTAR": 0.00010754,
    "MEAN_MOTION_DOT": 6.28e-06,
    "MEAN_MOTION_DDOT": 0
  },
  {
    "OBJECT_NAME": "CUBESAT XI-V",
    "OBJECT_ID": "2005-043F",
    "EPOCH": "2025-06-28T08:37:54.405408",
    "MEAN_MOTION": 14.71062578,
    "ECCENTRICITY": 0.0013356,
    "INCLINATION": 98.252,
    "RA_OF_ASC_NODE": 323.9469,
    "ARG_OF_PERICENTER": 244.9841,
    "MEAN_ANOMALY": 114.9978,
    "EPHEMERIS_TYPE": 0,
    "CLASSIFICATION_TYPE": "U",
    "NORAD_CAT_ID": 28895,
    "ELEMENT_SET_NO": 999,
    "REV_AT_EPOCH": 4970,
    "BSTAR": 0.0001584,
    "MEAN_MOTION_DOT": 9.22e-06,
    "MEAN_MOTION_DDOT": 0
  },
  {
    "OBJECT_NAME": "CUTE-1.7+APD II (CO-65)",
    "OBJECT_ID": "2008-021C",
    "EPOCH": "2025-06-28T13:26:32.088768",
    "MEAN_MOTION": 15.04570924,
    "ECCENTRICITY": 0.0010888,
    "INCLINATION": 97.7854,
    "RA_OF_ASC_NODE": 150.867,
    "ARG_OF_PERICENTER": 140.2374,
    "MEAN_ANOMALY": 219.9652,
    "EPHEMERIS_TYPE": 0,
    "CLASSIFICATION_TYPE": "U",
    "NORAD_CAT_ID": 32785,
    "ELEMENT_SET_NO": 999,
    "REV_AT_EPOCH": 93193,
    "BSTAR": 0.00016944,
    "MEAN_MOTION_DOT": 2.316e-05,
    "MEAN_MOTION_DDOT": 0
  },
  {
    "OBJECT_NAME": "SEEDS II (CO-66)",
    "OBJECT_ID": "2008-021J",
    "EPOCH": "2025-06-28T09:55:04.975392",
    "MEAN_MOTION": 15.19066214,
    "ECCENTRICITY": 0.0005839,
    "INCLINATION": 97.7283,
    "RA_OF_ASC_NODE": 159.8794,
    "ARG_OF_PERICENTER": 100.9128,
    "MEAN_ANOMALY": 259.2763,
    "EPHEMERIS_TYPE": 0,
    "CLASSIFICATION_TYPE": "U",
    "NORAD_CAT_ID": 32791,
    "ELEMENT_SET_NO": 999,
    "REV_AT_EPOCH": 93335,
    "BSTAR": 0.00037474,
    "MEAN_MOTION_DOT": 7.79e-05,
    "MEAN_MOTION_DDOT": 0
  },
  {
    "OBJECT_NAME": "YUBILEINY (RS-30)",
    "OBJECT_ID": "2008-025A",
    "EPOCH": "2025-06-28T21:04:11.863776",
    "MEAN_MOTION": 12.43165762,
    "ECCENTRICITY": 0.001925,
    "INCLINATION": 82.5015,
    "RA_OF_ASC_NODE": 215.1771,
    "ARG_OF_PERICENTER": 7.8216,
    "MEAN_ANOMALY": 352.316,
    "EPHEMERIS_TYPE": 0,
    "CLASSIFICATION_TYPE": "U",
    "NORAD_CAT_ID": 32953,
    "ELEMENT_SET_NO": 999,
    "REV_AT_EPOCH": 77593,
    "BSTAR": 5.1142e-05,
    "MEAN_MOTION_DOT": 1.7e-07,
    "MEAN_MOTION_DDOT": 0
  },
  {
    "OBJECT_NAME": "KKS-1 (KISEKI)",
    "OBJECT_ID": "2009-002H",
    "EPOCH": "2025-06-28T13:37:41.441664",
    "MEAN_MOTION": 14.81670485,
    "ECCENTRICITY": 0.0008241,
    "INCLINATION": 98.1192,
    "RA_OF_ASC_NODE": 91.8919,
    "ARG_OF_PERICENTER": 6.1687,
    "MEAN_ANOMALY": 353.9625,
    "EPHEMERIS_TYPE": 0,
    "CLASSIFICATION_TYPE": "U",
    "NORAD_CAT_ID": 33499,
    "ELEMENT_SET_NO": 999,
    "REV_AT_EPOCH": 88380,
    "BSTAR": 0.0001144,
    "MEAN_MOTION_DOT": 8.46e-06,
    "MEAN_MOTION_DDOT": 0
  },
  {
    "OBJECT_NAME": "SWISSCUBE",
    "OBJECT_ID": "2009-051B",
    "EPOCH": "2025-06-28T11:02:02.172768",
    "MEAN_MOTION": 14.61373006,
    "ECCENTRICITY": 0.000578,
    "INCLINATION": 98.4285,
    "RA_OF_ASC_NODE": 76.0475,
    "ARG_OF_PERICENTER": 226.8158,
    "MEAN_ANOMALY": 133.256,
    "EPHEMERIS_TYPE": 0,
    "CLASSIFICATION_TYPE": "U",
    "NORAD_CAT_ID": 35932,
    "ELEMENT_SET_NO": 999,
    "REV_AT_EPOCH": 83747,
    "BSTAR": 0.00014014,
    "MEAN_MOTION_DOT": 6.44e-06,
    "MEAN_MOTION_DDOT": 0
  },
  {
    "OBJECT_NAME": "BEESAT-1",
    "OBJECT_ID": "2009-051C",
    "EPOCH": "2025-06-28T12:14:43.327680",
    "MEAN_MOTION": 14.60781752,
    "ECCENTRICITY": 0.0004101,
    "INCLINATION": 98.4216,
    "RA_OF_ASC_NODE": 76.4193,
    "ARG_OF_PERICENTER": 241.2432,
    "MEAN_ANOMALY": 118.8356,
    "EPHEMERIS_TYPE": 0,
    "CLASSIFICATION_TYPE": "U",
    "NORAD_CAT_ID": 35933,
    "ELEMENT_SET_NO": 999,
    "REV_AT_EPOCH": 83753,
    "BSTAR": 0.00011991,
    "MEAN_MOTION_DOT": 5.36e-06,
    "MEAN_MOTION_DDOT": 0
  },
  {
    "OBJECT_NAME": "ITUPSAT1",
    "OBJECT_ID": "2009-051E",
    "EPOCH": "2025-06-28T14:40:13.886976",
    "MEAN_MOTION": 14.59577101,
    "ECCENTRICITY": 0.0006258,
    "INCLINATION": 98.431,
    "RA_OF_ASC_NODE": 76.047,
    "ARG_OF_PERICENTER": 253.5337,
    "MEAN_ANOMALY": 106.5174,
    "EPHEMERIS_TYPE": 0,
    "CLASSIFICATION_TYPE": "U",
    "NORAD_CAT_ID": 35935,
    "ELEMENT_SET_NO": 999,
    "REV_AT_EPOCH": 83714,
    "BSTAR": 0.00011222,
    "MEAN_MOTION_DOT": 4.85e-06,
    "MEAN_MOTION_DDOT": 0
  },
  {
    "OBJECT_NAME": "XIWANG-1 (HOPE-1)",
    "OBJECT_ID": "2009-072B",
    "EPOCH": "2025-06-28T11:11:18.274272",
    "MEAN_MOTION": 13.1642553,
    "ECCENTRICITY": 0.0007151,
    "INCLINATION": 100.3496,
    "RA_OF_ASC_NODE": 134.8453,
    "ARG_OF_PERICENTER": 327.0331,
    "MEAN_ANOMALY": 33.0335,
    "EPHEMERIS_TYPE": 0,
    "CLASSIFICATION_TYPE": "U",
    "NORAD_CAT_ID": 36122,
    "ELEMENT_SET_NO": 999,
    "REV_AT_EPOCH": 74646,
    "BSTAR": 2.4816e-05,
    "MEAN_MOTION_DOT": -3.5e-07,
    "MEAN_MOTION_DDOT": 0
  },
  {
    "OBJECT_NAME": "O/OREOS (USA 219)",
    "OBJECT_ID": "2010-062C",
    "EPOCH": "2025-06-28T16:19:07.061376",
    "MEAN_MOTION": 14.91533599,
    "ECCENTRICITY": 0.0014229,
    "INCLINATION": 71.9691,
    "RA_OF_ASC_NODE": 159.7564,
    "ARG_OF_PERICENTER": 12.0093,
    "MEAN_ANOMALY": 348.1412,
    "EPHEMERIS_TYPE": 0,
    "CLASSIFICATION_TYPE": "U",
    "NORAD_CAT_ID": 37224,
    "ELEMENT_SET_NO": 999,
    "REV_AT_EPOCH": 6389,
    "BSTAR": 0.0001497,
    "MEAN_MOTION_DOT": 1.441e-05,
    "MEAN_MOTION_DDOT": 0
  },
  {
    "OBJECT_NAME": "JUGNU",
    "OBJECT_ID": "2011-058B",
    "EPOCH": "2025-06-28T12:54:00.967680",
    "MEAN_MOTION": 14.13608731,
    "ECCENTRICITY": 0.0018596,
    "INCLINATION": 19.9614,
    "RA_OF_ASC_NODE": 296.7058,
    "ARG_OF_PERICENTER": 130.5415,
    "MEAN_ANOMALY": 318.1887,
    "EPHEMERIS_TYPE": 0,
    "CLASSIFICATION_TYPE": "U",
    "NORAD_CAT_ID": 37839,
    "ELEMENT_SET_NO": 999,
    "REV_AT_EPOCH": 70892,
    "BSTAR": 5.6872e-05,
    "MEAN_MOTION_DOT": 3.76e-06,
    "MEAN_MOTION_DDOT": 0
  },
  {
    "OBJECT_NAME": "SRMSAT",
    "OBJECT_ID": "2011-058D",
    "EPOCH": "2025-06-28T14:31:58.968768",
    "MEAN_MOTION": 14.1144087,
    "ECCENTRICITY": 0.0011716,
    "INCLINATION": 19.9735,
    "RA_OF_ASC_NODE": 39.4142,
    "ARG_OF_PERICENTER": 274.0735,
    "MEAN_ANOMALY": 104.2936,
    "EPHEMERIS_TYPE": 0,
    "CLASSIFICATION_TYPE": "U",
    "NORAD_CAT_ID": 37841,
    "ELEMENT_SET_NO": 999,
    "REV_AT_EPOCH": 70780,
    "BSTAR": 4.8258e-05,
    "MEAN_MOTION_DOT": 3.54e-06,
    "MEAN_MOTION_DDOT": 0
  },
  {
    "OBJECT_NAME": "STRAND-1",
    "OBJECT_ID": "2013-009E",
    "EPOCH": "2025-06-28T11:27:48.120192",
    "MEAN_MOTION": 14.36830004,
    "ECCENTRICITY": 0.0008219,
    "INCLINATION": 98.3827,
    "RA_OF_ASC_NODE": 3.6774,
    "ARG_OF_PERICENTER": 200.5869,
    "MEAN_ANOMALY": 159.4988,
    "EPHEMERIS_TYPE": 0,
    "CLASSIFICATION_TYPE": "U",
    "NORAD_CAT_ID": 39090,
    "ELEMENT_SET_NO": 999,
    "REV_AT_EPOCH": 64626,
    "BSTAR": 7.6155e-05,
    "MEAN_MOTION_DOT": 1.82e-06,
    "MEAN_MOTION_DDOT": 0
  }
]