MOZHAYETS 4 (RS-22)     
1 27939U 03042A   25179.84755355  .00000628  00000+0  10754-3 0  9990
2 27939  98.3294 349.7658 0010424 313.5306 176.5051 14.72390387163662
CUBESAT XI-V            
1 28895U 05043F   25179.35965747  .00000922  00000+0  15840-3 0  9997
2 28895  98.2520 323.9469 0013356 244.9841 114.9978 14.71062578 49706
CUTE-1.7+APD II (CO-65) 
1 32785U 08021C   25179.56009362  .00002316  00000+0  16944-3 0  9999
2 32785  97.7854 150.8670 0010888 140.2374 219.9652 15.04570924931936
SEEDS II (CO-66)        
1 32791U 08021J   25179.41325203  .00007790  00000+0  37474-3 0  9997
2 32791  97.7283 159.8794 0005839 100.9128 259.2763 15.19066214933351
YUBILEINY (RS-30)       
1 32953U 08025A   25179.87791509  .00000017  00000+0  51142-4 0  9991
2 32953  82.5015 215.1771 0019250   7.8216 352.3160 12.43165762775938
KKS-1 (KISEKI)          
1 33499U 09002H   25179.56784076  .00000846  00000+0  11440-3 0  9996
2 33499  98.1192  91.8919 0008241   6.1687 353.9625 14.81670485883804
SWISSCUBE               
1 35932U 09051B   25179.45974737  .00000644  00000+0  14014-3 0  9993
2 35932  98.4285  76.0475 0005780 226.8158 133.2560 14.61373006837471
BEESAT-1                
1 35933U 09051C   25179.51022370  .00000536  00000+0  11991-3 0  9999
2 35933  98.4216  76.4193 0004101 241.2432 118.8356 14.60781752837538
ITUPSAT1                
1 35935U 09051E   25179.61127184  .00000485  00000+0  11222-3 0  9991
2 35935  98.4310  76.0470 0006258 253.5337 106.5174 14.59577101837142
XIWANG-1 (HOPE-1)       
1 36122U 09072B   25179.46618373 -.00000035  00000+0  24816-4 0  9997
2 36122 100.3496 134.8453 0007151 327.0331  33.0335 13.16425530746464
O/OREOS (USA 219)       
1 37224U 10062C   25179.67994284  .00001441  00000+0  14970-3 0  9993
2 37224  71.9691 159.7564 0014229  12.0093 348.1412 14.91533599 63891
JUGNU                   
1 37839U 11058B   25179.53751120  .00000376  00000+0  56872-4 0  9990
2 37839  19.9614 296.7058 0018596 130.5415 318.1887 14.13608731708923
SRMSAT                  
1 37841U 11058D   25179.60554362  .00000354  00000+0  48258-4 0  9995
2 37841  19.9735  39.4142 0011716 274.0735 104.2936 14.11440870707803
STRAND-1                
1 39090U 13009E   25179.47764028  .00000182  00000+0  76155-4 0  9994
2 39090  98.3827   3.6774 0008219 200.5869 159.4988 14.36830004646264
